NORAD_CAT_ID,OBJECT_NAME,OBJECT_TYPE,EPOCH,MEAN_MOTION,ECCENTRICITY,INCLINATION,RA_OF_ASC_NODE,ARG_OF_PERICENTER,MEAN_ANOMALY,BSTAR,MEAN_MOTION_DOT,MEAN_MOTION_DDOT,TLE_LINE0,TLE_LINE1,TLE_LINE2,SEMIMAJOR_AXIS,PERIOD,APOGEE,PERIGEE,DECAYED
53603.0,STARLINK-4692,PAYLOAD,2024-07-12 09:28:07,15.08838512,0.0001339,53.2163,76.5717,92.266,267.8486,5.8358e-05,6.41e-06,0.0,0 STARLINK-4692,1 53603U 22104R   24194.39453473  .00000641  00000-0  58358-4 0  9998,2 53603  53.2163  76.5717 0001339  92.2660 267.8486 15.08838512104303,6917.885,95.438,540.676,538.824,0.0
53603.0,STARLINK-4692,PAYLOAD,2024-07-12 20:35:50,15.08833482,0.0001202,53.2163,74.4897,92.366,267.7469,6.1805e-05,6.96e-06,0.0,0 STARLINK-4692,1 53603U 22104R   24194.85821824  .00000696  00000-0  61805-4 0  9999,2 53603  53.2163  74.4897 0001202  92.3660 267.7469 15.08833482103680,6917.9,95.438,540.597,538.934,0.0
53603.0,STARLINK-4692,PAYLOAD,2024-07-12 22:11:13,15.0883622,0.0001224,53.2147,74.1929,92.3324,267.7809,6.4873e-05,7.45e-06,0.0,0 STARLINK-4692,1 53603U 22104R   24194.92445943  .00000745  00000-0  64873-4 0  9994,2 53603  53.2147  74.1929 0001224  92.3324 267.7809 15.08836220104385,6917.892,95.438,540.604,538.91,0.0
53603.0,STARLINK-4692,PAYLOAD,2024-07-13 01:21:58,15.08851022,0.0001357,53.2174,73.5981,93.062,267.0527,7.3466e-05,8.82e-06,0.0,0 STARLINK-4692,1 53603U 22104R   24195.05692904  .00000882  00000-0  73466-4 0  9990,2 53603  53.2174  73.5981 0001357  93.0620 267.0527 15.08851022103713,6917.847,95.437,540.65,538.773,0.0
53603.0,STARLINK-4692,PAYLOAD,2024-07-13 09:18:55,15.08837737,0.000132,53.2178,72.1077,103.0631,257.0509,2.6472e-07,-2.84e-06,0.0,0 STARLINK-4692,1 53603U 22104R   24195.38813818 -.00000284  00000-0  26472-6 0  9999,2 53603  53.2178  72.1077 0001320 103.0631 257.0509 15.08837737103763,6917.887,95.438,540.665,538.839,0.0
53603.0,STARLINK-4692,PAYLOAD,2024-07-13 22:01:59,15.08840731,0.0001385,53.2154,69.7323,91.5622,268.5528,9.9274e-05,1.292e-05,0.0,0 STARLINK-4692,1 53603U 22104R   24195.91805551  .00001292  00000-0  99274-4 0  9990,2 53603  53.2154  69.7323 0001385  91.5622 268.5528 15.08840731104537,6917.878,95.438,540.701,538.785,0.0
53603.0,STARLINK-4692,PAYLOAD,2024-07-14 09:09:41,15.08848839,0.000137,53.2168,67.651,90.3453,269.7696,7.5133e-05,9.08e-06,0.0,0 STARLINK-4692,1 53603U 22104R   24196.38173062  .00000908  00000-0  75133-4 0  9998,2 53603  53.2168  67.6510 0001370  90.3453 269.7696 15.08848839103917,6917.853,95.437,540.666,538.771,0.0
53603.0,STARLINK-4692,PAYLOAD,2024-07-14 21:52:46,15.08851309,0.000146,53.2188,65.2707,99.4102,260.7056,0.00017867,2.558e-05,0.0,0 STARLINK-4692,1 53603U 22104R   24196.91164637  .00002558  00000-0  17867-3 0  9997,2 53603  53.2188  65.2707 0001460  99.4102 260.7056 15.08851309104684,6917.846,95.437,540.721,538.701,0.0
53603.0,STARLINK-4692,PAYLOAD,2024-07-15 21:43:34,15.08841366,0.000136,53.217,60.8131,84.9852,275.1295,8.327e-05,1.038e-05,0.0,0 STARLINK-4692,1 53603U 22104R   24197.90525580  .00001038  00000-0  83270-4 0  9999,2 53603  53.2170  60.8131 0001360  84.9852 275.1295 15.08841366104145,6917.876,95.437,540.682,538.8,0.0
53603.0,STARLINK-4692,PAYLOAD,2024-07-16 21:34:20,15.08855033,0.0001393,53.2176,56.3502,103.1573,256.9574,0.00020621,2.997e-05,0.0,0 STARLINK-4692,1 53603U 22104R   24198.89884722  .00002997  00000-0  20621-3 0  9999,2 53603  53.2176  56.3502 0001393 103.1573 256.9574 15.08855033104292,6917.834,95.437,540.663,538.736,0.0
53603.0,STARLINK-4692,PAYLOAD,2024-07-17 07:06:39,15.0883774,0.0001383,53.2169,54.5647,90.6343,269.4807,1.7153e-05,-1.5e-07,0.0,0 STARLINK-4692,1 53603U 22104R   24199.29629422 -.00000015  00000-0  17153-4 0  9995,2 53603  53.2169  54.5647 0001383  90.6343 269.4807 15.08837740104358,6917.887,95.438,540.709,538.796,0.0
53603.0,STARLINK-4692,PAYLOAD,2024-07-17 21:25:08,15.08833568,0.0001522,53.2189,51.8982,120.1662,239.9481,4.3021e-05,3.97e-06,0.0,0 STARLINK-4692,1 53603U 22104R   24199.89246374  .00000397  00000-0  43021-4 0  9997,2 53603  53.2189  51.8982 0001522 120.1662 239.9481 15.08833568105131,6917.9,95.438,540.818,538.712,0.0
53603.0,STARLINK-4692,PAYLOAD,2024-07-18 00:35:54,15.08841556,0.0001136,53.2172,51.2954,93.0692,267.043,9.0568e-05,1.154e-05,0.0,0 STARLINK-4692,1 53603U 22104R   24200.02493779  .00001154  00000-0  90568-4 0  9998,2 53603  53.2172  51.2954 0001136  93.0692 267.0430 15.08841556104465,6917.876,95.437,540.527,538.955,0.0
53603.0,STARLINK-4692,PAYLOAD,2024-07-18 06:57:27,15.08839199,0.000115,53.2175,50.105,83.7733,276.339,9.2987e-05,1.192e-05,0.0,0 STARLINK-4692,1 53603U 22104R   24200.28990037  .00001192  00000-0  92987-4 0  9994,2 53603  53.2175  50.1050 0001150  83.7733 276.3390 15.08839199105190,6917.883,95.438,540.543,538.952,0.0
53603.0,STARLINK-4692,PAYLOAD,2024-07-18 21:15:55,15.0885116,0.0001092,53.2174,47.4282,98.7058,261.4058,1.7459e-05,-1e-07,0.0,0 STARLINK-4692,1 53603U 22104R   24200.88605664 -.00000010  00000-0  17459-4 0  9999,2 53603  53.2174  47.4282 0001092  98.7058 261.4058 15.08851160105284,6917.846,95.437,540.467,538.956,0.0
53603.0,STARLINK-4692,PAYLOAD,2024-07-19 00:26:41,15.08847887,0.000118,53.2178,46.8327,97.148,262.9646,5.3527e-05,5.64e-06,0.0,0 STARLINK-4692,1 53603U 22104R   24201.01853658  .00000564  00000-0  53527-4 0  9992,2 53603  53.2178  46.8327 0001180  97.1480 262.9646 15.08847887105304,6917.856,95.437,540.538,538.905,0.0
53603.0,STARLINK-4692,PAYLOAD,2024-07-19 21:06:42,15.08849099,0.0001073,53.2184,42.9694,89.3171,270.7944,0.00014012,1.943e-05,0.0,0 STARLINK-4692,1 53603U 22104R   24201.87965692  .00001943  00000-0  14012-3 0  9995,2 53603  53.2184  42.9694 0001073  89.3171 270.7944 15.08849099104748,6917.853,95.437,540.46,538.975,0.0
53603.0,STARLINK-4692,PAYLOAD,2024-07-20 06:39:01,15.08840493,0.0001276,53.2186,41.1839,93.1637,266.9501,6.4863e-05,7.45e-06,0.0,0 STARLINK-4692,1 53603U 22104R   24202.27710432  .00000745  00000-0  64863-4 0  9999,2 53603  53.2186  41.1839 0001276  93.1637 266.9501 15.08840493104809,6917.879,95.438,540.627,538.861,0.0
53603.0,STARLINK-4692,PAYLOAD,2024-07-20 19:22:07,15.08836318,0.000115,53.2183,38.8031,97.8029,262.3093,9.0076e-05,1.146e-05,0.0,0 STARLINK-4692,1 53603U 22104R   24202.80702742  .00001146  00000-0  90076-4 0  9994,2 53603  53.2183  38.8031 0001150  97.8029 262.3093 15.08836318105572,6917.892,95.438,540.552,538.961,0.0
53603.0,STARLINK-4692,PAYLOAD,2024-07-21 06:29:48,15.08844999,0.0001048,53.2176,36.7224,95.0149,265.0963,3.7176e-05,3.04e-06,0.0,0 STARLINK-4692,1 53603U 22104R   24203.27070209  .00000304  00000-0  37176-4 0  9999,2 53603  53.2176  36.7224 0001048  95.0149 265.0963 15.08844999105642,6917.865,95.437,540.455,539.005,0.0
53603.0,STARLINK-4692,PAYLOAD,2024-07-21 19:12:53,15.08846691,0.0001088,53.218,34.3424,109.5156,250.5954,-1.5112e-05,-5.28e-06,0.0,0 STARLINK-4692,1 53603U 22104R   24203.80062299 -.00000528  00000-0 -15112-4 0  9994,2 53603  53.2180  34.3424 0001088 109.5156 250.5954 15.08846691105039,6917.86,95.437,540.478,538.972,0.0
53603.0,STARLINK-4692,PAYLOAD,2024-07-23 23:40:37,15.08846555,0.0001084,53.2173,24.5348,97.8,262.3116,9.071e-05,1.156e-05,0.0,0 STARLINK-4692,1 53603U 22104R   24205.98654020  .00001156  00000-0  90710-4 0  9997,2 53603  53.2173  24.5348 0001084  97.8000 262.3116 15.08846555105366,6917.86,95.437,540.475,538.975,0.0
53603.0,STARLINK-4692,PAYLOAD,2024-07-24 12:23:44,15.08845355,0.0001365,53.2166,22.1534,86.5165,273.5983,-0.00019638,-3.412e-05,0.0,0 STARLINK-4692,1 53603U 22104R   24206.51648694 -.00003412  00000-0 -19638-3 0  9995,2 53603  53.2166  22.1534 0001365  86.5165 273.5983 15.08845355105440,6917.864,95.437,540.673,538.785,0.0
53603.0,STARLINK-4692,PAYLOAD,2024-07-24 13:59:06,15.08816764,0.0001048,53.2171,21.8569,97.2708,262.8403,8.8105e-05,1.114e-05,0.0,0 STARLINK-4692,1 53603U 22104R   24206.58270983  .00001114  00000-0  88105-4 0  9995,2 53603  53.2171  21.8569 0001048  97.2708 262.8403 15.08816764106148,6917.951,95.439,540.541,539.091,0.0
53603.0,STARLINK-4692,PAYLOAD,2024-07-24 20:20:38,15.08823052,7.94e-05,53.2182,20.6693,83.3989,276.7094,0.00019536,2.821e-05,0.0,0 STARLINK-4692,1 53603U 22104R   24206.84766424  .00002821  00000-0  19536-3 0  9991,2 53603  53.2182  20.6693 0000794  83.3989 276.7094 15.08823052105494,6917.932,95.439,540.346,539.248,0.0
53603.0,STARLINK-4692,PAYLOAD,2024-07-24 21:56:02,15.0884569,0.0001224,53.2178,20.3707,80.4776,279.6355,-2.7722e-05,-7.29e-06,0.0,0 STARLINK-4692,1 53603U 22104R   24206.91391376 -.00000729  00000-0 -27722-4 0  9993,2 53603  53.2178  20.3707 0001224  80.4776 279.6355 15.08845690106195,6917.863,95.437,540.575,538.881,0.0
53603.0,STARLINK-4692,PAYLOAD,2024-07-25 20:11:25,15.08847719,0.0001139,53.218,16.2077,75.0544,285.0575,9.3042e-05,1.194e-05,0.0,0 STARLINK-4692,1 53603U 22104R   24207.84126601  .00001194  00000-0  93042-4 0  9996,2 53603  53.2180  16.2077 0001139  75.0544 285.0575 15.08847719105648,6917.857,95.437,540.51,538.934,0.0
53603.0,STARLINK-4692,PAYLOAD,2024-07-25 21:46:48,15.0885172,9.91e-05,53.218,15.9103,83.8738,276.2367,0.00011448,1.535e-05,0.0,0 STARLINK-4692,1 53603U 22104R   24207.90750236  .00001535  00000-0  11448-3 0  9998,2 53603  53.2180  15.9103 0000991  83.8738 276.2367 15.08851720106347,6917.845,95.437,540.395,539.024,0.0
53603.0,STARLINK-4692,PAYLOAD,2024-07-26 10:29:54,15.08832924,9.45e-05,53.2181,13.5316,87.2641,272.8459,0.00016468,2.334e-05,0.0,0 STARLINK-4692,1 53603U 22104R   24208.43743461  .00002334  00000-0  16468-3 0  9994,2 53603  53.2181  13.5316 0000945  87.2641 272.8459 15.08832924105739,6917.902,95.438,540.421,539.113,0.0
53603.0,STARLINK-4692,PAYLOAD,2024-07-26 20:02:12,15.08846954,0.0001282,53.2182,11.7472,99.8739,260.2398,0.00030922,4.638e-05,0.0,0 STARLINK-4692,1 53603U 22104R   24208.83486381  .00004638  00000-0  30922-3 0  9993,2 53603  53.2182  11.7472 0001282  99.8739 260.2398 15.08846954105792,6917.859,95.437,540.611,538.837,0.0
